{
    "links": {
        "self": "http://www.neowsapp.com/rest/v1/neo/3471217?api_key=iIulBulltgU6a56xZRHN4H3l9WmuAYTsLGpBGhQ2"
    },
    "id": "3471217",
    "neo_reference_id": "3471217",
    "name": "(2009 TS)",
    "designation": "2009 TS",
    "nasa_jpl_url": "http://ssd.jpl.nasa.gov/sbdb.cgi?sstr=3471217",
    "absolute_magnitude_h": 25.5,
    "estimated_diameter": {
        "kilometers": {
            "estimated_diameter_min": 0.0211132445,
            "estimated_diameter_max": 0.0472106499
        },
        "meters": {
            "estimated_diameter_min": 21.113244479,
            "estimated_diameter_max": 47.2106498806
        },
        "miles": {
            "estimated_diameter_min": 0.0131191578,
            "estimated_diameter_max": 0.0293353287
        },
        "feet": {
            "estimated_diameter_min": 69.2691770164,
            "estimated_diameter_max": 154.8905885541
        }
    },
    "is_potentially_hazardous_asteroid": false,
    "close_approach_data": [
        {
            "close_approach_date": "1977-12-30",
            "close_approach_date_full": "1977-Dec-30 10:24",
            "epoch_date_close_approach": 252325440000,
            "relative_velocity": {
                "kilometers_per_second": "15.9550288815",
                "kilometers_per_hour": "57438.1039734655",
                "miles_per_hour": "35689.8041050681"
            },
            "miss_distance": {
                "astronomical": "0.3233834033",
                "lunar": "125.7961438837",
                "kilometers": "48377468.327030971",
                "miles": "30060364.9007745598"
            },
            "orbiting_body": "Earth"
        },
        {
            "close_approach_date": "2005-01-05",
            "close_approach_date_full": "2005-Jan-05 23:30",
            "epoch_date_close_approach": 1104967800000,
            "relative_velocity": {
                "kilometers_per_second": "19.0019020881",
                "kilometers_per_hour": "68406.8475173069",
                "miles_per_hour": "42505.3547809622"
            },
            "miss_distance": {
                "astronomical": "0.4156659004",
                "lunar": "161.6940352556",
                "kilometers": "62182733.331472148",
                "miles": "38638558.7983977224"
            },
            "orbiting_body": "Earth"
        },
        {
            "close_approach_date": "2009-10-12",
            "close_approach_date_full": "2009-Oct-12 04:49",
            "epoch_date_close_approach": 1255322940000,
            "relative_velocity": {
                "kilometers_per_second": "8.9470351778",
                "kilometers_per_hour": "32209.3266400702",
                "miles_per_hour": "20013.6229892147"
            },
            "miss_distance": {
                "astronomical": "0.0256800278",
                "lunar": "9.9895308142",
                "kilometers": "3841677.460420786",
                "miles": "2387107.6822514068"
            },
            "orbiting_body": "Earth"
        }
    ],
    "orbital_data": {
        "orbit_id": "11",
        "orbit_determination_date": "2017-04-06 08:59:42",
        "first_observation_date": "2009-10-09",
        "last_observation_date": "2009-10-13",
        "data_arc_in_days": 4,
        "observations_used": 49,
        "orbit_uncertainty": "7",
        "minimum_orbit_intersection": ".023655",
        "jupiter_tisserand_invariant": "3.900",
        "epoch_osculation": "2459000.5",
        "eccentricity": ".4637234734787152",
        "semi_major_axis": "1.816667308142673",
        "inclination": "8.482316931300305",
        "ascending_node_longitude": "14.40185944460538",
        "orbital_period": "894.3582721237125",
        "perihelion_distance": ".9742360338555252",
        "perihelion_argument": "35.11590765678111",
        "aphelion_distance": "2.659098582429821",
        "perihelion_time": "2458720.752829394359",
        "mean_anomaly": "112.6047408035827",
        "mean_motion": ".4025232518341407",
        "equinox": "J2000",
        "orbit_class": {
            "orbit_class_type": "APO",
            "orbit_class_description": "Near-Earth asteroid orbits which cross the Earth’s orbit similar to that of 1862 Apollo",
            "orbit_class_range": "a (semi-major axis) > 1.0 AU; q (perihelion) < 1.017 AU"
        }
    },
    "is_sentry_object": false
}